start=new Date('2022-04-09T00:00:00.000Z').valueOf();
sats=[{"OBJECT_ID":"2020-038AR","PERIAPSIS":"545.928","TIME_SYSTEM":"UTC","MEAN_MOTION":"15.06421386","RA_OF_ASC_NODE":"180.5687","INCLINATION":"53.0538","MEAN_MOTION_DOT":"0.00007533","NORAD_CAT_ID":"45769","MEAN_MOTION_DDOT":"0.0000000000000","APOAPSIS":"548.368","BSTAR":"0.00052379000000","SITE":"AFETR","RCS_SIZE":"LARGE","SEMIMAJOR_AXIS":"6925.283","OBJECT_TYPE":"PAYLOAD","TLE_LINE1":"1 45769U 20038AR  22098.70443709  .00007533  00000-0  52379-3 0  9996","MEAN_ANOMALY":"303.2330","LAUNCH_DATE":"2020-06-13","DECAY_DATE":null,"GP_ID":"200779969","CLASSIFICATION_TYPE":"U","TLE_LINE2":"2 45769  53.0538 180.5687 0001761  56.8828 303.2330 15.06421386100511","REV_AT_EPOCH":"10051","EPHEMERIS_TYPE":"0","ELEMENT_SET_NO":"999","OBJECT_NAME":"STARLINK-1459","REF_FRAME":"TEME","FILE":"3393990","COUNTRY_CODE":"US","ECCENTRICITY":"0.00017610","EPOCH":"2022-04-08T16:54:23.364576","PERIOD":"95.591","MEAN_ELEMENT_THEORY":"SGP4","ARG_OF_PERICENTER":"56.8828","CENTER_NAME":"EARTH"},{"SITE":"AFETR","MEAN_MOTION_DDOT":"0.0000000000000","APOAPSIS":"548.356","BSTAR":"0.00035663000000","RCS_SIZE":"LARGE","SEMIMAJOR_AXIS":"6925.314","OBJECT_TYPE":"PAYLOAD","PERIAPSIS":"546.003","OBJECT_ID":"2020-038AS","INCLINATION":"53.0512","MEAN_MOTION_DOT":"0.00005036","NORAD_CAT_ID":"45770","TIME_SYSTEM":"UTC","RA_OF_ASC_NODE":"141.7300","MEAN_MOTION":"15.06411143","OBJECT_NAME":"STARLINK-1462","REF_FRAME":"TEME","EPHEMERIS_TYPE":"0","ELEMENT_SET_NO":"999","PERIOD":"95.591","MEAN_ELEMENT_THEORY":"SGP4","ARG_OF_PERICENTER":"56.2229","CENTER_NAME":"EARTH","FILE":"3393517","COUNTRY_CODE":"US","ECCENTRICITY":"0.00016990","EPOCH":"2022-04-08T10:36:11.558016","MEAN_ANOMALY":"303.8921","TLE_LINE1":"1 45770U 20038AS  22098.44180044  .00005036  00000-0  35663-3 0  9992","CLASSIFICATION_TYPE":"U","REV_AT_EPOCH":"10102","TLE_LINE2":"2 45770  53.0512 141.7300 0001699  56.2229 303.8921 15.06411143101024","LAUNCH_DATE":"2020-06-13","GP_ID":"200744982","DECAY_DATE":null},{"OBJECT_ID":"2020-038AT","PERIAPSIS":"546.077","MEAN_MOTION":"15.06408159","RA_OF_ASC_NODE":"139.9918","TIME_SYSTEM":"UTC","NORAD_CAT_ID":"45771","INCLINATION":"53.0532","MEAN_MOTION_DOT":"0.00002953","BSTAR":"0.00021704000000","APOAPSIS":"548.300","MEAN_MOTION_DDOT":"0.0000000000000","SITE":"AFETR","SEMIMAJOR_AXIS":"6925.324","OBJECT_TYPE":"PAYLOAD","RCS_SIZE":"LARGE","TLE_LINE1":"1 45771U 20038AT  22098.83345431  .00002953  00000-0  21704-3 0  9995","MEAN_ANOMALY":"298.6254","DECAY_DATE":null,"GP_ID":"200778468","LAUNCH_DATE":"2020-06-13","REV_AT_EPOCH":"10108","TLE_LINE2":"2 45771  53.0532 139.9918 0001605  61.4896 298.6254 15.06408159101085","CLASSIFICATION_TYPE":"U","ELEMENT_SET_NO":"999","EPHEMERIS_TYPE":"0","REF_FRAME":"TEME","OBJECT_NAME":"STARLINK-1463","ECCENTRICITY":"0.00016050","EPOCH":"2022-04-08T20:00:10.452384","COUNTRY_CODE":"US","FILE":"3393990","CENTER_NAME":"EARTH","ARG_OF_PERICENTER":"61.4896","PERIOD":"95.592","MEAN_ELEMENT_THEORY":"SGP4"},{"SITE":"AFETR","MEAN_MOTION_DDOT":"0.0000000000000","APOAPSIS":"548.063","BSTAR":"0.00059033000000","RCS_SIZE":"LARGE","OBJECT_TYPE":"PAYLOAD","SEMIMAJOR_AXIS":"6925.266","PERIAPSIS":"546.198","OBJECT_ID":"2020-038AU","MEAN_MOTION_DOT":"0.00008529","INCLINATION":"53.0513","NORAD_CAT_ID":"45772","TIME_SYSTEM":"UTC","RA_OF_ASC_NODE":"140.0248","MEAN_MOTION":"15.06427100","OBJECT_NAME":"STARLINK-1470","REF_FRAME":"TEME","EPHEMERIS_TYPE":"0","ELEMENT_SET_NO":"999","MEAN_ELEMENT_THEORY":"SGP4","PERIOD":"95.590","ARG_OF_PERICENTER":"57.6396","CENTER_NAME":"EARTH","COUNTRY_CODE":"US","FILE":"3393711","EPOCH":"2022-04-08T19:44:14.929728","ECCENTRICITY":"0.00013460","MEAN_ANOMALY":"302.4723","TLE_LINE1":"1 45772U 20038AU  22098.82239502  .00008529  00000-0  59033-3 0  9997","CLASSIFICATION_TYPE":"U","TLE_LINE2":"2 45772  53.0513 140.0248 0001346  57.6396 302.4723 15.06427100102205","REV_AT_EPOCH":"10220","LAUNCH_DATE":"2020-06-13","DECAY_DATE":null,"GP_ID":"200753204"},{"MEAN_ANOMALY":"307.1205","TLE_LINE1":"1 45773U 20038AV  22098.81503174  .00005032  00000-0  35641-3 0  9991","REV_AT_EPOCH":"10109","TLE_LINE2":"2 45773  53.0533 140.0688 0001676  52.9937 307.1205 15.06409055101093","CLASSIFICATION_TYPE":"U","DECAY_DATE":null,"GP_ID":"200779470","LAUNCH_DATE":"2020-06-13","REF_FRAME":"TEME","OBJECT_NAME":"STARLINK-1482","ELEMENT_SET_NO":"999","EPHEMERIS_TYPE":"0","ARG_OF_PERICENTER":"52.9937","CENTER_NAME":"EARTH","MEAN_ELEMENT_THEORY":"SGP4","PERIOD":"95.592","EPOCH":"2022-04-08T19:33:38.742336","ECCENTRICITY":"0.00016760","COUNTRY_CODE":"US","FILE":"3393990","PERIAPSIS":"546.025","OBJECT_ID":"2020-038AV","NORAD_CAT_ID":"45773","MEAN_MOTION_DOT":"0.00005032","INCLINATION":"53.0533","MEAN_MOTION":"15.06409055","RA_OF_ASC_NODE":"140.0688","TIME_SYSTEM":"UTC","SITE":"AFETR","BSTAR":"0.00035641000000","MEAN_MOTION_DDOT":"0.0000000000000","APOAPSIS":"548.346","OBJECT_TYPE":"PAYLOAD","SEMIMAJOR_AXIS":"6925.321","RCS_SIZE":"LARGE"},{"MEAN_ANOMALY":"306.1630","TLE_LINE1":"1 45774U 20038AW  22098.85188485  .00004750  00000-0  33737-3 0  9990","REV_AT_EPOCH":"10109","TLE_LINE2":"2 45774  53.0547 139.8985 0001557  53.9503 306.1630 15.06419619101091","CLASSIFICATION_TYPE":"U","DECAY_DATE":null,"GP_ID":"200780220","LAUNCH_DATE":"2020-06-13","REF_FRAME":"TEME","OBJECT_NAME":"STARLINK-1485","ELEMENT_SET_NO":"999","EPHEMERIS_TYPE":"0","CENTER_NAME":"EARTH","ARG_OF_PERICENTER":"53.9503","PERIOD":"95.591","MEAN_ELEMENT_THEORY":"SGP4","ECCENTRICITY":"0.00015570","EPOCH":"2022-04-08T20:26:42.851040","FILE":"3393990","COUNTRY_CODE":"US","PERIAPSIS":"546.075","OBJECT_ID":"2020-038AW","NORAD_CAT_ID":"45774","INCLINATION":"53.0547","MEAN_MOTION_DOT":"0.00004750","MEAN_MOTION":"15.06419619","RA_OF_ASC_NODE":"139.8985","TIME_SYSTEM":"UTC","SITE":"AFETR","BSTAR":"0.00033737000000","MEAN_MOTION_DDOT":"0.0000000000000","APOAPSIS":"548.232","SEMIMAJOR_AXIS":"6925.288","OBJECT_TYPE":"PAYLOAD","RCS_SIZE":"LARGE"},{"LAUNCH_DATE":"2020-06-13","DECAY_DATE":null,"GP_ID":"200743732","CLASSIFICATION_TYPE":"U","REV_AT_EPOCH":"10103","TLE_LINE2":"2 45775  53.0530 141.9700 0001396  67.8053 292.3084 15.06410076101039","TLE_LINE1":"1 45775U 20038AX  22098.39114620  .00002711  00000-0  20077-3 0  9998","MEAN_ANOMALY":"292.3084","COUNTRY_CODE":"US","FILE":"3393517","EPOCH":"2022-04-08T09:23:15.031680","ECCENTRICITY":"0.00013960","MEAN_ELEMENT_THEORY":"SGP4","PERIOD":"95.592","CENTER_NAME":"EARTH","ARG_OF_PERICENTER":"67.8053","EPHEMERIS_TYPE":"0","ELEMENT_SET_NO":"999","OBJECT_NAME":"STARLINK-1488","REF_FRAME":"TEME","TIME_SYSTEM":"UTC","RA_OF_ASC_NODE":"141.9700","MEAN_MOTION":"15.06410076","MEAN_MOTION_DOT":"0.00002711","INCLINATION":"53.0530","NORAD_CAT_ID":"45775","OBJECT_ID":"2020-038AX","PERIAPSIS":"546.216","RCS_SIZE":"LARGE","OBJECT_TYPE":"PAYLOAD","SEMIMAJOR_AXIS":"6925.318","APOAPSIS":"548.149","MEAN_MOTION_DDOT":"0.0000000000000","BSTAR":"0.00020077000000","SITE":"AFETR"},{"OBJECT_TYPE":"PAYLOAD","SEMIMAJOR_AXIS":"6925.294","RCS_SIZE":"LARGE","BSTAR":"0.00042967000000","APOAPSIS":"548.454","MEAN_MOTION_DDOT":"0.0000000000000","SITE":"AFETR","MEAN_MOTION":"15.06417932","RA_OF_ASC_NODE":"141.0281","TIME_SYSTEM":"UTC","NORAD_CAT_ID":"45776","MEAN_MOTION_DOT":"0.00006127","INCLINATION":"53.0539","OBJECT_ID":"2020-038AY","PERIAPSIS":"545.863","EPOCH":"2022-04-08T14:20:29.237568","ECCENTRICITY":"0.00018710","COUNTRY_CODE":"US","FILE":"3393990","CENTER_NAME":"EARTH","ARG_OF_PERICENTER":"54.4190","MEAN_ELEMENT_THEORY":"SGP4","PERIOD":"95.591","ELEMENT_SET_NO":"999","EPHEMERIS_TYPE":"0","REF_FRAME":"TEME","OBJECT_NAME":"STARLINK-1489","DECAY_DATE":null,"GP_ID":"200778719","LAUNCH_DATE":"2020-06-13","REV_AT_EPOCH":"10106","TLE_LINE2":"2 45776  53.0539 141.0281 0001871  54.4190 305.6973 15.06417932101062","CLASSIFICATION_TYPE":"U","TLE_LINE1":"1 45776U 20038AY  22098.59756062  .00006127  00000-0  42967-3 0  9990","MEAN_ANOMALY":"305.6973"},{"MEAN_MOTION_DOT":"0.00001899","INCLINATION":"53.0538","NORAD_CAT_ID":"45777","TIME_SYSTEM":"UTC","RA_OF_ASC_NODE":"141.0659","MEAN_MOTION":"15.06404339","PERIAPSIS":"546.013","OBJECT_ID":"2020-038AZ","RCS_SIZE":"LARGE","OBJECT_TYPE":"PAYLOAD","SEMIMAJOR_AXIS":"6925.335","SITE":"AFETR","APOAPSIS":"548.388","MEAN_MOTION_DDOT":"0.0000000000000","BSTAR":"0.00014631000000","CLASSIFICATION_TYPE":"U","REV_AT_EPOCH":"10106","TLE_LINE2":"2 45777  53.0538 141.0659 0001715  58.5769 301.5387 15.06404339101066","LAUNCH_DATE":"2020-06-13","GP_ID":"200779970","DECAY_DATE":null,"MEAN_ANOMALY":"301.5387","TLE_LINE1":"1 45777U 20038AZ  22098.59386828  .00001899  00000-0  14631-3 0  9998","MEAN_ELEMENT_THEORY":"SGP4","PERIOD":"95.592","CENTER_NAME":"EARTH","ARG_OF_PERICENTER":"58.5769","COUNTRY_CODE":"US","FILE":"3393990","EPOCH":"2022-04-08T14:15:10.219392","ECCENTRICITY":"0.00017150","OBJECT_NAME":"STARLINK-1490","REF_FRAME":"TEME","EPHEMERIS_TYPE":"0","ELEMENT_SET_NO":"999"},{"SEMIMAJOR_AXIS":"6925.308","OBJECT_TYPE":"PAYLOAD","RCS_SIZE":"LARGE","BSTAR":"0.00029046000000","MEAN_MOTION_DDOT":"0.0000000000000","APOAPSIS":"548.247","SITE":"AFETR","RA_OF_ASC_NODE":"139.9452","MEAN_MOTION":"15.06413096","TIME_SYSTEM":"UTC","NORAD_CAT_ID":"45778","INCLINATION":"53.0520","MEAN_MOTION_DOT":"0.00004049","OBJECT_ID":"2020-038BA","PERIAPSIS":"546.100","ECCENTRICITY":"0.00015500","EPOCH":"2022-04-08T20:10:47.697312","FILE":"3393721","COUNTRY_CODE":"US","CENTER_NAME":"EARTH","ARG_OF_PERICENTER":"71.5074","PERIOD":"95.591","MEAN_ELEMENT_THEORY":"SGP4","ELEMENT_SET_NO":"999","EPHEMERIS_TYPE":"0","REF_FRAME":"TEME","OBJECT_NAME":"STARLINK-1491","GP_ID":"200753978","DECAY_DATE":null,"LAUNCH_DATE":"2020-06-13","REV_AT_EPOCH":"10220","TLE_LINE2":"2 45778  53.0520 139.9452 0001550  71.5074 288.6083 15.06413096102201","CLASSIFICATION_TYPE":"U","TLE_LINE1":"1 45778U 20038BA  22098.84082983  .00004049  00000-0  29046-3 0  9998","MEAN_ANOMALY":"288.6083"}];
